CCSDS_OMM_VERS = 2.0
CREATION_DATE  = 
ORIGINATOR     = 

OBJECT_NAME    = ATLAS CENTAUR R/B
OBJECT_ID      = 1972-065B
CENTER_NAME    = EARTH
REF_FRAME      = TEME
TIME_SYSTEM    = UTC
MEAN_ELEMENT_THEORY = SGP/SGP4

EPOCH          = 2025-12-02T04:26:00.256416
MEAN_MOTION    = 14.77361324
ECCENTRICITY   = .00345945
INCLINATION    = 34.9998
RA_OF_ASC_NODE = 157.0256
ARG_OF_PERICENTER = 270.2133
MEAN_ANOMALY   = 89.4603

EPHEMERIS_TYPE = 0
CLASSIFICATION_TYPE = U
NORAD_CAT_ID   = 6155
ELEMENT_SET_NO = 999
REV_AT_EPOCH   = 82683
BSTAR          = .21160882E-3
MEAN_MOTION_DOT = .1521E-4
MEAN_MOTION_DDOT = 0

CCSDS_OMM_VERS = 2.0
CREATION_DATE  = 
ORIGINATOR     = 

OBJECT_NAME    = SL-8 R/B
OBJECT_ID      = 1975-112B
CENTER_NAME    = EARTH
REF_FRAME      = TEME
TIME_SYSTEM    = UTC
MEAN_ELEMENT_THEORY = SGP/SGP4

EPOCH          = 2025-12-02T01:09:42.674112
MEAN_MOTION    = 14.38134106
ECCENTRICITY   = .00164034
INCLINATION    = 74.0596
RA_OF_ASC_NODE = 198.5229
ARG_OF_PERICENTER = 311.0808
MEAN_ANOMALY   = 48.8929

EPHEMERIS_TYPE = 0
CLASSIFICATION_TYPE = U
NORAD_CAT_ID   = 8459
ELEMENT_SET_NO = 999
REV_AT_EPOCH   = 61783
BSTAR          = .11852389E-3
MEAN_MOTION_DOT = .334E-5
MEAN_MOTION_DDOT = 0

CCSDS_OMM_VERS = 2.0
CREATION_DATE  = 
ORIGINATOR     = 

OBJECT_NAME    = SL-3 R/B
OBJECT_ID      = 1977-057B
CENTER_NAME    = EARTH
REF_FRAME      = TEME
TIME_SYSTEM    = UTC
MEAN_ELEMENT_THEORY = SGP/SGP4

EPOCH          = 2025-12-02T05:57:54.459936
MEAN_MOTION    = 15.42564234
ECCENTRICITY   = .0006427
INCLINATION    = 97.5676
RA_OF_ASC_NODE = 139.1708
ARG_OF_PERICENTER = 277.0006
MEAN_ANOMALY   = 83.0510

EPHEMERIS_TYPE = 0
CLASSIFICATION_TYPE = U
NORAD_CAT_ID   = 10114
ELEMENT_SET_NO = 999
REV_AT_EPOCH   = 65329
BSTAR          = .3452144E-3
MEAN_MOTION_DOT = .14923E-3
MEAN_MOTION_DDOT = 0

CCSDS_OMM_VERS = 2.0
CREATION_DATE  = 
ORIGINATOR     = 

OBJECT_NAME    = SEASAT 1
OBJECT_ID      = 1978-064A
CENTER_NAME    = EARTH
REF_FRAME      = TEME
TIME_SYSTEM    = UTC
MEAN_ELEMENT_THEORY = SGP/SGP4

EPOCH          = 2025-12-02T02:21:20.090880
MEAN_MOTION    = 14.46041237
ECCENTRICITY   = .00019113
INCLINATION    = 108.0097
RA_OF_ASC_NODE = 280.7094
ARG_OF_PERICENTER = 250.4875
MEAN_ANOMALY   = 109.6064

EPHEMERIS_TYPE = 0
CLASSIFICATION_TYPE = U
NORAD_CAT_ID   = 10967
ELEMENT_SET_NO = 999
REV_AT_EPOCH   = 49240
BSTAR          = .18949846E-3
MEAN_MOTION_DOT = .539E-5
MEAN_MOTION_DDOT = 0

CCSDS_OMM_VERS = 2.0
CREATION_DATE  = 
ORIGINATOR     = 

OBJECT_NAME    = SL-14 R/B
OBJECT_ID      = 1979-011B
CENTER_NAME    = EARTH
REF_FRAME      = TEME
TIME_SYSTEM    = UTC
MEAN_ELEMENT_THEORY = SGP/SGP4

EPOCH          = 2025-12-01T23:43:45.398496
MEAN_MOTION    = 14.91749109
ECCENTRICITY   = .00168484
INCLINATION    = 82.5242
RA_OF_ASC_NODE = 189.2401
ARG_OF_PERICENTER = 28.6671
MEAN_ANOMALY   = 331.5471

EPHEMERIS_TYPE = 0
CLASSIFICATION_TYPE = U
NORAD_CAT_ID   = 11267
ELEMENT_SET_NO = 999
REV_AT_EPOCH   = 51421
BSTAR          = .69170932E-4
MEAN_MOTION_DOT = .724E-5
MEAN_MOTION_DDOT = 0

CCSDS_OMM_VERS = 2.0
CREATION_DATE  = 
ORIGINATOR     = 

OBJECT_NAME    = SL-8 R/B
OBJECT_ID      = 1979-089B
CENTER_NAME    = EARTH
REF_FRAME      = TEME
TIME_SYSTEM    = UTC
MEAN_ELEMENT_THEORY = SGP/SGP4

EPOCH          = 2025-12-02T07:02:06.199584
MEAN_MOTION    = 14.42271643
ECCENTRICITY   = .00144909
INCLINATION    = 74.0690
RA_OF_ASC_NODE = 271.3131
ARG_OF_PERICENTER = 110.1771
MEAN_ANOMALY   = 250.0945

EPHEMERIS_TYPE = 0
CLASSIFICATION_TYPE = U
NORAD_CAT_ID   = 11574
ELEMENT_SET_NO = 999
REV_AT_EPOCH   = 42206
BSTAR          = .13594932E-3
MEAN_MOTION_DOT = .423E-5
MEAN_MOTION_DDOT = 0

CCSDS_OMM_VERS = 2.0
CREATION_DATE  = 
ORIGINATOR     = 

OBJECT_NAME    = SL-14 R/B
OBJECT_ID      = 1980-005B
CENTER_NAME    = EARTH
REF_FRAME      = TEME
TIME_SYSTEM    = UTC
MEAN_ELEMENT_THEORY = SGP/SGP4

EPOCH          = 2025-12-02T06:33:27.439200
MEAN_MOTION    = 14.90771583
ECCENTRICITY   = .0017039
INCLINATION    = 82.5157
RA_OF_ASC_NODE = 39.6249
ARG_OF_PERICENTER = 125.4707
MEAN_ANOMALY   = 234.8106

EPHEMERIS_TYPE = 0
CLASSIFICATION_TYPE = U
NORAD_CAT_ID   = 11672
ELEMENT_SET_NO = 999
REV_AT_EPOCH   = 46197
BSTAR          = .85615664E-4
MEAN_MOTION_DOT = .869E-5
MEAN_MOTION_DDOT = 0

CCSDS_OMM_VERS = 2.0
CREATION_DATE  = 
ORIGINATOR     = 

OBJECT_NAME    = SL-8 R/B
OBJECT_ID      = 1981-003B
CENTER_NAME    = EARTH
REF_FRAME      = TEME
TIME_SYSTEM    = UTC
MEAN_ELEMENT_THEORY = SGP/SGP4

EPOCH          = 2025-12-02T04:17:03.351264
MEAN_MOTION    = 15.06541626
ECCENTRICITY   = .02811059
INCLINATION    = 82.9301
RA_OF_ASC_NODE = 19.9225
ARG_OF_PERICENTER = 156.6880
MEAN_ANOMALY   = 204.7398

EPHEMERIS_TYPE = 0
CLASSIFICATION_TYPE = U
NORAD_CAT_ID   = 12139
ELEMENT_SET_NO = 999
REV_AT_EPOCH   = 29997
BSTAR          = .62747066E-3
MEAN_MOTION_DOT = .23465E-3
MEAN_MOTION_DDOT = 0

CCSDS_OMM_VERS = 2.0
CREATION_DATE  = 
ORIGINATOR     = 

OBJECT_NAME    = SL-3 R/B
OBJECT_ID      = 1981-046B
CENTER_NAME    = EARTH
REF_FRAME      = TEME
TIME_SYSTEM    = UTC
MEAN_ELEMENT_THEORY = SGP/SGP4

EPOCH          = 2025-12-02T07:04:08.405472
MEAN_MOTION    = 15.39274457
ECCENTRICITY   = .00196226
INCLINATION    = 81.2346
RA_OF_ASC_NODE = 46.4295
ARG_OF_PERICENTER = 1.0922
MEAN_ANOMALY   = 359.0358

EPHEMERIS_TYPE = 0
CLASSIFICATION_TYPE = U
NORAD_CAT_ID   = 12465
ELEMENT_SET_NO = 999
REV_AT_EPOCH   = 42343
BSTAR          = .33827455E-3
MEAN_MOTION_DOT = .13301E-3
MEAN_MOTION_DDOT = 0

CCSDS_OMM_VERS = 2.0
CREATION_DATE  = 
ORIGINATOR     = 

OBJECT_NAME    = SL-3 R/B
OBJECT_ID      = 1981-103B
CENTER_NAME    = EARTH
REF_FRAME      = TEME
TIME_SYSTEM    = UTC
MEAN_ELEMENT_THEORY = SGP/SGP4

EPOCH          = 2025-12-02T06:14:07.867392
MEAN_MOTION    = 15.20031235
ECCENTRICITY   = .00111853
INCLINATION    = 81.1583
RA_OF_ASC_NODE = 327.6272
ARG_OF_PERICENTER = 253.6259
MEAN_ANOMALY   = 106.3742

EPHEMERIS_TYPE = 0
CLASSIFICATION_TYPE = U
NORAD_CAT_ID   = 12904
ELEMENT_SET_NO = 999
REV_AT_EPOCH   = 95842
BSTAR          = .40794024E-3
MEAN_MOTION_DOT = .8833E-4
MEAN_MOTION_DDOT = 0

CCSDS_OMM_VERS = 2.0
CREATION_DATE  = 
ORIGINATOR     = 

OBJECT_NAME    = SL-3 R/B
OBJECT_ID      = 1982-013B
CENTER_NAME    = EARTH
REF_FRAME      = TEME
TIME_SYSTEM    = UTC
MEAN_ELEMENT_THEORY = SGP/SGP4

EPOCH          = 2025-12-02T07:33:32.198400
MEAN_MOTION    = 15.20931929
ECCENTRICITY   = .00236068
INCLINATION    = 81.1744
RA_OF_ASC_NODE = 274.8097
ARG_OF_PERICENTER = 144.1776
MEAN_ANOMALY   = 216.1045

EPHEMERIS_TYPE = 0
CLASSIFICATION_TYPE = U
NORAD_CAT_ID   = 13068
ELEMENT_SET_NO = 999
REV_AT_EPOCH   = 38954
BSTAR          = .28883705E-3
MEAN_MOTION_DOT = .6465E-4
MEAN_MOTION_DDOT = 0

CCSDS_OMM_VERS = 2.0
CREATION_DATE  = 
ORIGINATOR     = 

OBJECT_NAME    = SL-3 R/B
OBJECT_ID      = 1982-039B
CENTER_NAME    = EARTH
REF_FRAME      = TEME
TIME_SYSTEM    = UTC
MEAN_ELEMENT_THEORY = SGP/SGP4

EPOCH          = 2025-12-02T05:34:04.223712
MEAN_MOTION    = 15.09423175
ECCENTRICITY   = .00304409
INCLINATION    = 81.1733
RA_OF_ASC_NODE = 328.1844
ARG_OF_PERICENTER = 287.8135
MEAN_ANOMALY   = 71.9769

EPHEMERIS_TYPE = 0
CLASSIFICATION_TYPE = U
NORAD_CAT_ID   = 13154
ELEMENT_SET_NO = 999
REV_AT_EPOCH   = 36693
BSTAR          = .24469149E-3
MEAN_MOTION_DOT = .3977E-4
MEAN_MOTION_DDOT = 0

