ATLAS CENTAUR R/B       
1 06155U 72065B   25336.18472519  .00001521  00000+0  21161-3 0  9995
2 06155  34.9998 157.0256 0034594 270.2133  89.4603 14.77361324826835
SL-8 R/B                
1 08459U 75112B   25336.04841058  .00000334  00000+0  11852-3 0  9990
2 08459  74.0596 198.5229 0016403 311.0808  48.8929 14.38134106617836
SL-3 R/B                
1 10114U 77057B   25336.24854699  .00014923  00000+0  34521-3 0  9995
2 10114  97.5676 139.1708 0006427 277.0006  83.0510 15.42564234653297
SEASAT 1                
1 10967U 78064A   25336.09814920  .00000539  00000+0  18950-3 0  9992
2 10967 108.0097 280.7094 0001911 250.4875 109.6064 14.46041237492400
SL-14 R/B               
1 11267U 79011B   25335.98871989  .00000724  00000+0  69171-4 0  9992
2 11267  82.5242 189.2401 0016848  28.6671 331.5471 14.91749109514216
SL-8 R/B                
1 11574U 79089B   25336.29312731  .00000423  00000+0  13595-3 0  9992
2 11574  74.0690 271.3131 0014490 110.1771 250.0945 14.42271643422063
SL-14 R/B               
1 11672U 80005B   25336.27323425  .00000869  00000+0  85616-4 0  9999
2 11672  82.5157  39.6249 0017039 125.4707 234.8106 14.90771583461972
SL-8 R/B                
1 12139U 81003B   25336.17851101  .00023465  00000+0  62747-3 0  9999
2 12139  82.9301  19.9225 0281105 156.6880 204.7398 15.06541626299975
SL-3 R/B                
1 12465U 81046B   25336.29454173  .00013301  00000+0  33827-3 0  9994
2 12465  81.2346  46.4295 0019622   1.0922 359.0358 15.39274457423434
SL-3 R/B                
1 12904U 81103B   25336.25981328  .00008833  00000+0  40794-3 0  9994
2 12904  81.1583 327.6272 0011185 253.6259 106.3742 15.20031235958424
SL-3 R/B                
1 13068U 82013B   25336.31495600  .00006465  00000+0  28884-3 0  9992
2 13068  81.1744 274.8097 0023606 144.1776 216.1045 15.20931929389548
SL-3 R/B                
1 13154U 82039B   25336.23199333  .00003977  00000+0  24469-3 0  9991
2 13154  81.1733 328.1844 0030440 287.8135  71.9769 15.09423175366937
